ISS (ZARYA)             
1 25544U 98067A   25361.88879672  .00015012  00000+0  27157-3 0  9995
2 25544  51.6320  67.4500 0003237 312.1119  47.9595 15.49886938545200
CSS (TIANHE)            
1 48274U 21035A   25362.14831690  .00021938  00000+0  26879-3 0  9993
2 48274  41.4673 283.1187 0008946 164.7819 195.3290 15.59789598266431
ISS (NAUKA)             
1 49044U 21066A   25361.88879673  .00015012  00000+0  27157-3 0  9992
2 49044  51.6320  67.4500 0003237 312.1119  47.9595 15.49886938230448
FREGAT DEB              
1 49271U 11037PF  25360.49630089  .00006366  00000+0  14302-1 0  9991
2 49271  51.6519 158.7680 0864537 253.7501  96.6634 12.34586922203633
CSS (WENTIAN)           
1 53239U 22085A   25361.95623421  .00018740  00000+0  23041-3 0  9990
2 53239  41.4675 284.2863 0008858 163.5308 196.5820 15.59777304173841
CSS (MENGTIAN)          
1 54216U 22143A   25361.95623421  .00018740  00000+0  23041-3 0  9991
2 54216  41.4675 284.2863 0008858 163.5308 196.5820 15.59777304158648
SHENZHOU-20 (SZ-20)     
1 63632U 25082A   25361.95623421  .00018740  00000+0  23041-3 0  9998
2 63632  41.4675 284.2863 0008858 163.5308 196.5820 15.59777304255301
PROGRESS-MS 31          
1 64751U 25146A   25361.88879673  .00015012  00000+0  27157-3 0  9997
2 64751  51.6320  67.4500 0003237 312.1119  47.9595 15.49886938  6755
TIANZHOU-9              
1 64786U 25149A   25361.95623421  .00018740  00000+0  23041-3 0  9993
2 64786  41.4675 284.2863 0008858 163.5308 196.5820 15.59777304255302
CREW DRAGON 11          
1 65077U 25166A   25361.88879673  .00015012  00000+0  27157-3 0  9991
2 65077  51.6320  67.4500 0003237 312.1119  47.9595 15.49886938  2146
DRAGON CRS-33           
1 65304U 25186A   25361.88879673  .00015012  00000+0  27157-3 0  9996
2 65304  51.6320  67.4500 0003237 312.1119  47.9595 15.49886938   114
PROGRESS-MS 32          
1 65586U 25204A   25361.88879673  .00015012  00000+0  27157-3 0  9999
2 65586  51.6320  67.4500 0003237 312.1119  47.9595 15.49886938   273
